YOTSUBA-KULOVER         
1 65941U 98067XN  26051.27913386  .00115955  00000+0  78681-3 0  9996
2 65941  51.6238 147.1268 0005407 336.4438  23.6312 15.74086289 20759
BOTAN                   
1 65942U 98067XP  26051.28435552  .00485551  10576-3  12449-2 0  9996
2 65942  51.6146 141.8256 0009835 354.6871   5.4031 15.94621143 20828
E-KAGAKU-1              
1 65943U 98067XQ  26051.28092224  .00114285  00000+0  78139-3 0  9991
2 65943  51.6268 147.1533 0005568 347.0501  13.0354 15.73915585 20754
HRC MONOBLOCK CAMERA    
1 66052U 98067XR  26051.28939709  .00037241  00000+0  45070-3 0  9995
2 66052  51.6293 153.2199 0002498  26.6751 333.4371 15.60302557 19678
HTV-X1                  
1 66174U 25241A   26051.21610692  .00009352  00000+0  18284-3 0  9993
2 66174  51.6324 158.7245 0008575 115.0388 245.1491 15.48153499   511
SZ-21 MODULE            
1 66515U 25246C   26051.04654385  .00031392  00000+0  28694-3 0  9990
2 66515  41.4757 311.8512 0001754 295.1642  64.9017 15.67142085 15305
SHENZHOU-22             
1 66645U 25272A   26051.17723654  .00020706  00000+0  25310-3 0  9992
2 66645  41.4676 314.6566 0004643 152.1392 207.9696 15.59912191267645
SOYUZ-MS 28             
1 66664U 25275A   26051.21610692  .00009352  00000+0  18284-3 0  9994
2 66664  51.6324 158.7245 0008575 115.0388 245.1491 15.48153499  1280
DUPLEX                  
1 66906U 98067XS  26050.85523141  .00031428  00000+0  46566-3 0  9996
2 66906  51.6297 158.5697 0001534  73.8689 286.2471 15.54966738 12359
ISS OBJECT XT           
1 66907U 98067XT  26051.29499027  .00093018  00000+0  95087-3 0  9996
2 66907  51.6268 154.0021 0003213 345.0441  15.0458 15.64255145 12454
ISS OBJECT XU           
1 66908U 98067XU  26051.29411471  .00093259  00000+0  95120-3 0  9999
2 66908  51.6268 153.9936 0003151 349.4129  10.6799 15.64310972 12459
SILVERSAT               
1 66909U 98067XV  26051.25693511  .00111296  00000+0  10521-2 0  9996
2 66909  51.6274 153.7468 0003970 342.9901  17.0961 15.66137117 12452
